{
  "norad_id": 63720,
  "name": "STARLINK-33757",
  "history": [
    {
      "epoch": "2026-05-05T19:15:48.317184Z",
      "apogee_km": 476.2796684083787,
      "perigee_km": 474.0331588273948,
      "latitude_deg": -1.4295605069475797e-06,
      "longitude_deg": 161.66078247988108,
      "height_km": 475.18832347448847,
      "semi_major_axis_km": 6853.2934136178865,
      "eccentricity": 0.0001639,
      "inclination_deg": 53.1599,
      "raan_deg": 314.2845,
      "arg_perigee_deg": 39.5196,
      "mean_anomaly_deg": 320.5924,
      "mean_motion_rev_day": 15.30219645
    },
    {
      "epoch": "2026-05-06T18:46:36.437088Z",
      "apogee_km": 476.0033734681929,
      "perigee_km": 474.4476601768738,
      "latitude_deg": 7.053834547966824e-05,
      "longitude_deg": 163.4384730973236,
      "height_km": 476.57252407004165,
      "semi_major_axis_km": 6853.362516822533,
      "eccentricity": 0.0001135,
      "inclination_deg": 53.1609,
      "raan_deg": 309.7283,
      "arg_perigee_deg": 125.2011,
      "mean_anomaly_deg": 234.9097,
      "mean_motion_rev_day": 15.30196501
    }
  ]
}